NORAD_CAT_ID,OBJECT_NAME,OBJECT_TYPE,EPOCH,MEAN_MOTION,ECCENTRICITY,INCLINATION,RA_OF_ASC_NODE,ARG_OF_PERICENTER,MEAN_ANOMALY,BSTAR,MEAN_MOTION_DOT,MEAN_MOTION_DDOT,TLE_LINE0,TLE_LINE1,TLE_LINE2,SEMIMAJOR_AXIS,PERIOD,APOGEE,PERIGEE,DECAYED
51809.0,STARLINK-3607,PAYLOAD,2022-05-01 22:00:01,15.48925269,0.000177,53.2176,182.4164,30.2614,319.4231,-0.0142389999999999,-0.00723254,0.0,0 STARLINK-3607,1 51809U 22017AT  22121.91668981 -.00723254  00000-0 -14239-1 0  9996,2 51809  53.2176 182.4164 0001770  30.2614 319.4231 15.48925269  3700,6798.005999999999,92.968,421.074,418.668,0.0
51809.0,STARLINK-3607,PAYLOAD,2022-05-02 14:00:01,15.47901313,0.000218,53.2175,179.2422,21.7033,86.1977,-0.0146069999999999,-0.00716302,0.0,0 STARLINK-3607,1 51809U 22017AT  22122.58334491 -.00716302  00000-0 -14607-1 0  9991,2 51809  53.2175 179.2422 0002180  21.7033  86.1977 15.47901313 11589,6801.003000000002,93.029,424.351,421.386,0.0
51809.0,STARLINK-3607,PAYLOAD,2022-05-02 22:00:01,15.47393086,0.000175,53.2175,177.6542,37.8744,128.3127,-0.014923,-0.00718635,0.0,0 STARLINK-3607,1 51809U 22017AT  22122.91668981 -.00718635  00000-0 -14923-1 0  9994,2 51809  53.2175 177.6542 0001750  37.8744 128.3127 15.47393086  3694,6802.493,93.06,425.548,423.167,0.0
51809.0,STARLINK-3607,PAYLOAD,2022-05-03 14:00:01,15.46371549,0.0001571,53.2176,174.4873,45.9006,234.8253,-0.015396,-0.00715713,0.0,0 STARLINK-3607,1 51809U 22017AT  22123.58334491 -.00715713  00000-0 -15396-1 0  9993,2 51809  53.2176 174.4873 0001571  45.9006 234.8253 15.46371549 11746,6805.488,93.121,428.422,426.284,0.0
51809.0,STARLINK-3607,PAYLOAD,2022-05-03 22:00:00,15.45864154,0.0001538,53.2177,172.903,38.6776,298.4315,-0.015781,-0.00720455,0.0,0 STARLINK-3607,1 51809U 22017AT  22123.91667824 -.00720455  00000-0 -15781-1 0  9996,2 51809  53.2177 172.9030 0001538  38.6776 298.4315 15.45864154  3688,6806.977,93.152,429.889,427.795,0.0
51809.0,STARLINK-3607,PAYLOAD,2022-05-04 14:00:01,15.44841004,0.0001612,53.2174,169.7436,39.2147,48.8215,-0.016207,-0.00714753,0.0,0 STARLINK-3607,1 51809U 22017AT  22124.58334491 -.00714753  00000-0 -16207-1 0  9999,2 51809  53.2174 169.7436 0001612  39.2147  48.8215 15.44841004 11897,6809.982,93.213,432.945,430.75,0.0
51809.0,STARLINK-3607,PAYLOAD,2022-05-04 22:00:01,15.44332243,0.0001824,53.2174,168.1629,34.7844,107.8613,-0.016535,-0.00716519,0.0,0 STARLINK-3607,1 51809U 22017AT  22124.91668981 -.00716519  00000-0 -16535-1 0  9996,2 51809  53.2174 168.1629 0001824  34.7844 107.8613 15.44332243  3690,6811.478,93.244,434.585,432.1,0.0
51809.0,STARLINK-3607,PAYLOAD,2022-05-05 14:00:01,15.43311131,0.0001855,53.2172,165.0107,36.0641,213.7669,-0.017057,-0.0071407,0.0,0 STARLINK-3607,1 51809U 22017AT  22125.58334491 -.00714070  00000-0 -17057-1 0  9996,2 51809  53.2172 165.0107 0001855  36.0641 213.7669 15.43311131  3699,6814.482,93.306,437.611,435.083,0.0
51809.0,STARLINK-3607,PAYLOAD,2022-05-05 16:00:00,15.43189315,0.0001656,53.2171,164.616,37.2971,315.7659,-0.017359,-0.00722969,0.0,0 STARLINK-3607,1 51809U 22017AT  22125.66667824 -.00722969  00000-0 -17359-1 0  9995,2 51809  53.2171 164.6160 0001656  37.2971 315.7659 15.43189315 12060,6814.840999999999,93.313,437.834,435.577,0.0
51809.0,STARLINK-3607,PAYLOAD,2022-05-05 22:00:00,15.42802634,0.0001537,53.2175,163.4337,42.828,259.7098,-0.01743,-0.0071694,0.0,0 STARLINK-3607,1 51809U 22017AT  22125.91667824 -.00716940  00000-0 -17430-1 0  9995,2 51809  53.2175 163.4337 0001537  42.8280 259.7098 15.42802634  3687,6815.979,93.337,438.892,436.797,0.0
51809.0,STARLINK-3607,PAYLOAD,2022-05-06 14:00:01,15.41783041,0.0001564,53.2172,160.289,37.5731,8.5368,-0.018038,-0.00716893,0.0,0 STARLINK-3607,1 51809U 22017AT  22126.58334491 -.00716893  00000-0 -18038-1 0  9992,2 51809  53.2172 160.2890 0001564  37.5731   8.5368 15.41783041  3684,6818.984,93.398,441.915,439.782,0.0
51809.0,STARLINK-3607,PAYLOAD,2022-05-06 22:00:00,15.41272401,0.0001797,53.2173,158.7155,31.942,65.0374,-0.01834,-0.00716584,0.0,0 STARLINK-3607,1 51809U 22017AT  22126.91667824 -.00716584  00000-0 -18340-1 0  9991,2 51809  53.2173 158.7155 0001797  31.9420  65.0374 15.41272401 12253,6820.49,93.429,443.581,441.129,0.0
51809.0,STARLINK-3607,PAYLOAD,2022-05-07 14:00:01,15.40252865,0.000167,53.2172,155.5779,45.0898,151.7852,-0.018973,-0.00716515,0.0,0 STARLINK-3607,1 51809U 22017AT  22127.58334491 -.00716515  00000-0 -18973-1 0  9992,2 51809  53.2172 155.5779 0001670  45.0898 151.7852 15.40252865  3686,6823.499,93.491,446.504,444.225,0.0
51809.0,STARLINK-3607,PAYLOAD,2022-05-07 22:00:00,15.39742412,0.0001696,53.2174,154.0079,42.0,203.9058,-0.019273,-0.0071569,0.0,0 STARLINK-3607,1 51809U 22017AT  22127.91667824 -.00715690  00000-0 -19273-1 0  9995,2 51809  53.2174 154.0079 0001696  42.0000 203.9058 15.39742412 12414,6825.007,93.522,448.03,445.715,0.0
51809.0,STARLINK-3607,PAYLOAD,2022-05-08 14:00:01,15.38724709,0.0001519,53.2174,150.8777,41.2611,300.8627,-0.020023,-0.00718704,0.0,0 STARLINK-3607,1 51809U 22017AT  22128.58334491 -.00718704  00000-0 -20023-1 0  9994,2 51809  53.2174 150.8777 0001519  41.2611 300.8627 15.38724709  3671,6828.016,93.584,450.919,448.844,0.0
51809.0,STARLINK-3607,PAYLOAD,2022-05-08 20:00:01,15.38341727,0.0001771,53.2176,149.7028,36.1149,251.4611,-0.020274,-0.00718656,0.0,0 STARLINK-3607,1 51809U 22017AT  22128.83334491 -.00718656  00000-0 -20274-1 0  9996,2 51809  53.2176 149.7028 0001771  36.1149 251.4611 15.38341727 12554,6829.15,93.607,452.224,449.805,0.0
51809.0,STARLINK-3607,PAYLOAD,2022-05-08 22:00:00,15.38212317,0.0001759,53.2174,149.3115,30.9892,358.3281,-0.02028,-0.00716033,0.0,0 STARLINK-3607,1 51809U 22017AT  22128.91667824 -.00716033  00000-0 -20280-1 0  9998,2 51809  53.2174 149.3115 0001759  30.9892 358.3281 15.38212317  3673,6829.533,93.615,452.599,450.196,0.0
51809.0,STARLINK-3607,PAYLOAD,2022-05-09 14:00:01,15.37193659,0.0001585999999999,53.2172,146.1883,44.1428,77.7804,-0.021004,-0.00717194,0.0,0 STARLINK-3607,1 51809U 22017AT  22129.58335648 -.00717194  00000-0 -21004-1 0  9992,2 51809  53.2172 146.1883 0001586  44.1428  77.7804 15.37193659  3677,6832.549,93.677,455.49800000000016,453.331,0.0
51809.0,STARLINK-3607,PAYLOAD,2022-05-09 22:00:00,15.36684193,0.0001675999999999,53.2173,144.6261,43.2684,123.9444,-0.021403,-0.00718703,0.0,0 STARLINK-3607,1 51809U 22017AT  22129.91667824 -.00718703  00000-0 -21403-1 0  9993,2 51809  53.2173 144.6261 0001676  43.2684 123.9444 15.36684193  3676,6834.06,93.708,457.07,454.779,0.0
51809.0,STARLINK-3607,PAYLOAD,2022-05-10 00:00:00,15.36556069,0.0001591,53.2175,144.2358,49.0728,219.3825,-0.021445,-0.00717232,0.0,0 STARLINK-3607,1 51809U 22017AT  22130.00001157 -.00717232  00000-0 -21445-1 0  9998,2 51809  53.2175 144.2358 0001591  49.0728 219.3825 15.36556069 12730,6834.439,93.716,457.392,455.217,0.0
51809.0,STARLINK-3607,PAYLOAD,2022-05-10 14:00:01,15.35665744,0.0001506,53.2171,141.51,54.1105,201.9676,-0.022195,-0.00720933,0.0,0 STARLINK-3607,1 51809U 22017AT  22130.58334491 -.00720933  00000-0 -22195-1 0  9996,2 51809  53.2171 141.5100 0001506  54.1105 201.9676 15.35665744  3677,6837.081,93.77,459.975,457.916,0.0
51809.0,STARLINK-3607,PAYLOAD,2022-05-10 18:00:00,15.35409512,0.0001623,53.2174,140.7299,40.6546,57.2582,-0.022295,-0.00718447,0.0,0 STARLINK-3607,1 51809U 22017AT  22130.75001157 -.00718447  00000-0 -22295-1 0  9993,2 51809  53.2174 140.7299 0001623  40.6546  57.2582 15.35409512  3654,6837.840999999999,93.786,460.816,458.597,0.0
51809.0,STARLINK-3607,PAYLOAD,2022-05-11 22:00:00,15.33622918,0.0001535,53.2174,135.2877,41.8808,24.5797,-0.023536,-0.00716435,0.0,0 STARLINK-3607,1 51809U 22017AT  22131.91667824 -.00716435  00000-0 -23536-1 0  9995,2 51809  53.2174 135.2877 0001535  41.8808  24.5797 15.33622918 13023,6843.151,93.895,466.066,463.965,0.0
51809.0,STARLINK-3607,PAYLOAD,2022-05-12 14:00:01,15.32603936,0.0001541999999999,53.2172,132.1861,50.8347,97.1376,-0.024331,-0.00717031,0.0,0 STARLINK-3607,1 51809U 22017AT  22132.58334491 -.00717031  00000-0 -24331-1 0  9997,2 51809  53.2172 132.1861 0001542  50.8347  97.1376 15.32603936  1301,6846.184,93.958,469.104,466.99300000000005,0.0
51809.0,STARLINK-3607,PAYLOAD,2022-05-12 22:00:00,15.32094948,0.0001717,53.2173,130.6348,45.3926,142.4179,-0.024812,-0.00719384,0.0,0 STARLINK-3607,1 51809U 22017AT  22132.91667824 -.00719384  00000-0 -24812-1 0  9990,2 51809  53.2173 130.6348 0001717  45.3926 142.4179 15.32094948  1303,6847.7,93.989,470.741,468.389,0.0
51809.0,STARLINK-3607,PAYLOAD,2022-05-13 06:00:00,15.31582752,0.0001947,53.2174,129.088,38.3764,188.6586,-0.02507,-0.00715588,0.0,0 STARLINK-3607,1 51809U 22017AT  22133.25001157 -.00715588  00000-0 -25070-1 0  9998,2 51809  53.2174 129.0880 0001947  38.3764 188.6586 15.31582752 13237,6849.227,94.02,472.425,469.758,0.0
51809.0,STARLINK-3607,PAYLOAD,2022-05-13 14:00:01,15.31075583,0.0001488,53.2172,127.5403,55.7121,209.9339,-0.02565,-0.00720145,0.0,0 STARLINK-3607,1 51809U 22017AT  22133.58334491 -.00720145  00000-0 -25650-1 0  9993,2 51809  53.2172 127.5403 0001488  55.7121 209.9339 15.31075583  1306,6850.739000000001,94.052,473.62300000000016,471.585,0.0
51809.0,STARLINK-3607,PAYLOAD,2022-05-13 22:00:00,15.30562669,0.0001372,53.2174,125.9927,59.7899,243.8572,-0.025869,-0.00715133,0.0,0 STARLINK-3607,1 51809U 22017AT  22133.91667824 -.00715133  00000-0 -25869-1 0  9992,2 51809  53.2174 125.9927 0001372  59.7899 243.8572 15.30562669  1300,6852.269,94.083,475.075,473.194,0.0
51809.0,STARLINK-3607,PAYLOAD,2022-05-14 06:00:00,15.30054893,0.0001794,53.2173,124.4496,36.4848,304.5467,-0.026424,-0.00718769,0.0,0 STARLINK-3607,1 51809U 22017AT  22134.25001157 -.00718769  00000-0 -26424-1 0  9997,2 51809  53.2173 124.4496 0001794  36.4848 304.5467 15.30054893 13382,6853.785,94.114,476.88,474.421,0.0
